NORAD_CAT_ID,OBJECT_NAME,OBJECT_TYPE,EPOCH,MEAN_MOTION,ECCENTRICITY,INCLINATION,RA_OF_ASC_NODE,ARG_OF_PERICENTER,MEAN_ANOMALY,BSTAR,MEAN_MOTION_DOT,MEAN_MOTION_DDOT,TLE_LINE0,TLE_LINE1,TLE_LINE2,SEMIMAJOR_AXIS,PERIOD,APOGEE,PERIGEE,DECAYED
53906.0,STARLINK-5054,PAYLOAD,2023-11-26 13:44:47,15.07220409,0.0001529,53.2171,98.4674,100.956,259.1604,7.9256e-05,9.24e-06,0.0,0 STARLINK-5054,1 53906U 22119W   23330.57277701  .00000924  00000-0  79256-4 0  9993,2 53906  53.2171  98.4674 0001529 100.9560 259.1604 15.07220409 65907,6922.835,95.54,545.759,543.642,0.0
53906.0,STARLINK-5054,PAYLOAD,2023-11-26 15:20:17,15.0722058,0.0001625,53.2175,98.1698,101.6296,258.4878,9.0252e-05,1.091e-05,0.0,0 STARLINK-5054,1 53906U 22119W   23330.63908849  .00001091  00000-0  90252-4 0  9999,2 53906  53.2175  98.1698 0001625 101.6296 258.4878 15.07220580 65911,6922.835,95.54,545.825,543.575,0.0
53906.0,STARLINK-5054,PAYLOAD,2023-11-27 12:01:39,15.07196795,0.0001481,53.218,94.3103,101.7019,258.4138,-0.00018246,-3.059e-05,0.0,0 STARLINK-5054,1 53906U 22119W   23331.50115498 -.00003059  00000-0 -18246-3 0  9996,2 53906  53.2180  94.3103 0001481 101.7019 258.4138 15.07196795 65627,6922.908,95.542,545.798,543.747,0.0
53906.0,STARLINK-5054,PAYLOAD,2023-11-27 13:37:09,15.07197075,0.0001538,53.2175,94.0134,102.1902,257.9262,-0.00017658,-2.97e-05,0.0,0 STARLINK-5054,1 53906U 22119W   23331.56746696 -.00002970  00000-0 -17658-3 0  9999,2 53906  53.2175  94.0134 0001538 102.1902 257.9262 15.07197075 66053,6922.907,95.542,545.836,543.707,0.0
53906.0,STARLINK-5054,PAYLOAD,2023-11-27 18:23:37,15.07192355,0.0001757,53.218,93.1248,111.4789,248.639,-0.00022447,-3.698e-05,0.0,0 STARLINK-5054,1 53906U 22119W   23331.76640600 -.00003698  00000-0 -22447-3 0  9999,2 53906  53.2180  93.1248 0001757 111.4789 248.6390 15.07192355 66082,6922.921,95.542,546.003,543.57,0.0
53906.0,STARLINK-5054,PAYLOAD,2023-11-28 11:54:00,15.07207554,0.0001399,53.2187,89.8625,92.4285,267.6866,7.2597e-06,-1.73e-06,0.0,0 STARLINK-5054,1 53906U 22119W   23332.49583394 -.00000173  00000-0  72597-5 0  9993,2 53906  53.2187  89.8625 0001399  92.4285 267.6866 15.07207554 65773,6922.875,95.541,545.708,543.771,0.0
53906.0,STARLINK-5054,PAYLOAD,2023-11-28 13:29:29,15.07208508,0.0001487,53.2185,89.5653,101.3002,258.8157,5.2569e-05,5.17e-06,0.0,0 STARLINK-5054,1 53906U 22119W   23332.56214431  .00000517  00000-0  52569-4 0  9991,2 53906  53.2185  89.5653 0001487 101.3002 258.8157 15.07208508 66208,6922.872,95.541,545.766,543.707,0.0
53906.0,STARLINK-5054,PAYLOAD,2023-11-28 15:04:58,15.07207229,0.0001554,53.2182,89.2708,89.6604,270.4565,6.3163e-05,6.78e-06,0.0,0 STARLINK-5054,1 53906U 22119W   23332.62845587  .00000678  00000-0  63163-4 0  9990,2 53906  53.2182  89.2708 0001554  89.6604 270.4565 15.07207229 66217,6922.876,95.541,545.816,543.665,0.0
53906.0,STARLINK-5054,PAYLOAD,2023-11-29 13:21:50,15.07203209,0.0001506,53.2179,85.1095,90.8958,269.2206,0.00024776,3.49e-05,0.0,0 STARLINK-5054,1 53906U 22119W   23333.55682887  .00003490  00000-0  24776-3 0  9996,2 53906  53.2179  85.1095 0001506  90.8958 269.2206 15.07203209 66357,6922.888,95.541,545.796,543.71,0.0
53906.0,STARLINK-5054,PAYLOAD,2023-11-29 14:57:19,15.07204413,0.0001637,53.2186,84.8143,72.4261,287.6909,0.00026344,3.729e-05,0.0,0 STARLINK-5054,1 53906U 22119W   23333.62314010  .00003729  00000-0  26344-3 0  9992,2 53906  53.2186  84.8143 0001637  72.4261 287.6909 15.07204413 65949,6922.884,95.541,545.883,543.616,0.0
53906.0,STARLINK-5054,PAYLOAD,2023-12-01 11:31:01,15.07204562,0.0001702,53.2182,76.5054,63.2693,296.8472,2.014e-05,2.3e-07,0.0,0 STARLINK-5054,1 53906U 22119W   23335.47988107  .00000023  00000-0  20140-4 0  9994,2 53906  53.2182  76.5054 0001702  63.2693 296.8472 15.07204562 66228,6922.884,95.541,545.927,543.571,0.0
53906.0,STARLINK-5054,PAYLOAD,2023-12-01 14:42:00,15.07208768,0.0002176,53.2191,75.9119,54.8514,305.2681,8.4727e-05,1.006e-05,0.0,0 STARLINK-5054,1 53906U 22119W   23335.61250242  .00001006  00000-0  84727-4 0  9995,2 53906  53.2191  75.9119 0002176  54.8514 305.2681 15.07208768 66664,6922.871,95.541,546.242,543.229,0.0
53906.0,STARLINK-5054,PAYLOAD,2023-12-02 11:23:20,15.07232835,0.0001742,53.2182,72.051,73.3066,286.8117,0.00044844,6.554e-05,0.0,0 STARLINK-5054,1 53906U 22119W   23336.47454043  .00006554  00000-0  44844-3 0  9993,2 53906  53.2182  72.0510 0001742  73.3066 286.8117 15.07232835 66371,6922.797,95.539,545.868,543.456,0.0
53906.0,STARLINK-5054,PAYLOAD,2023-12-02 12:58:49,15.07231195,0.0002006,53.2179,71.7544,62.9444,297.1752,0.00053231,7.834e-05,0.0,0 STARLINK-5054,1 53906U 22119W   23336.54085538  .00007834  00000-0  53231-3 0  9992,2 53906  53.2179  71.7544 0002006  62.9444 297.1752 15.07231195 66804,6922.802,95.539,546.056,543.279,0.0
53906.0,STARLINK-5054,PAYLOAD,2023-12-03 11:15:42,15.07169298,0.0001581,53.2176,67.5967,92.366,267.7513,-0.00081248,-0.00012617,0.0,0 STARLINK-5054,1 53906U 22119W   23337.46924434 -.00012617  00000-0 -81248-3 0  9997,2 53906  53.2176  67.5967 0001581  92.3660 267.7513 15.07169298 66528,6922.992,95.543,545.951,543.762,0.0
53906.0,STARLINK-5054,PAYLOAD,2023-12-03 12:51:11,15.07165662,0.0001612,53.2176,67.2998,100.0197,260.0976,-0.00094962,-0.00014693,0.0,0 STARLINK-5054,1 53906U 22119W   23337.53555536 -.00014693  00000-0 -94962-3 0  9991,2 53906  53.2176  67.2998 0001612 100.0197 260.0976 15.07165662 66953,6923.003,95.544,545.984,543.752,0.0
53906.0,STARLINK-5054,PAYLOAD,2023-12-04 11:08:03,15.07203557,0.0001885,53.2179,63.1396,108.0922,252.0275,0.0012654,0.0001903,0.0,0 STARLINK-5054,1 53906U 22119W   23338.46392778  .00019030  00000-0  12654-2 0  9996,2 53906  53.2179  63.1396 0001885 108.0922 252.0275 15.07203557 66677,6922.887,95.541,546.057,543.447,0.0
53906.0,STARLINK-5054,PAYLOAD,2023-12-04 14:19:02,15.07166613,0.0004721,53.218,62.5447,149.3041,210.8228,-0.00031152,-5.02e-05,0.0,0 STARLINK-5054,1 53906U 22119W   23338.59656080 -.00005020  00000-0 -31152-3 0  9990,2 53906  53.2180  62.5447 0004721 149.3041 210.8228 15.07166613 67112,6923.0,95.544,548.133,541.597,0.0
53906.0,STARLINK-5054,PAYLOAD,2023-12-05 11:00:23,15.07215315,0.0001711,53.2175,58.6872,101.4738,258.6446,0.00059386,8.77e-05,0.0,0 STARLINK-5054,1 53906U 22119W   23339.45860177  .00008770  00000-0  59386-3 0  9992,2 53906  53.2175  58.6872 0001711 101.4738 258.6446 15.07215315 66825,6922.851,95.54,545.9,543.531,0.0
53906.0,STARLINK-5054,PAYLOAD,2023-12-06 10:52:42,15.07212372,0.0001727,53.2173,54.2321,97.632,262.4868,-7.1722e-05,-1.375e-05,0.0,0 STARLINK-5054,1 53906U 22119W   23340.45327380 -.00001375  00000-0 -71722-4 0  9993,2 53906  53.2173  54.2321 0001727  97.6320 262.4868 15.07212372 66971,6922.86,95.541,545.92,543.529,0.0
53906.0,STARLINK-5054,PAYLOAD,2023-12-06 14:03:41,15.07216114,0.0001715,53.2185,53.6379,98.2831,261.8355,3.3449e-05,2.26e-06,0.0,0 STARLINK-5054,1 53906U 22119W   23340.58589844  .00000226  00000-0  33449-4 0  9998,2 53906  53.2185  53.6379 0001715  98.2831 261.8355 15.07216114 67413,6922.848,95.54,545.901,543.526,0.0
53906.0,STARLINK-5054,PAYLOAD,2023-12-07 12:20:33,15.07204924,0.00016,53.2184,49.4813,84.1251,275.9923,-2.8541e-05,-7.18e-06,0.0,0 STARLINK-5054,1 53906U 22119W   23341.51427095 -.00000718  00000-0 -28541-4 0  9996,2 53906  53.2184  49.4813 0001600  84.1251 275.9923 15.07204924 67133,6922.883,95.541,545.855,543.64,0.0
53906.0,STARLINK-5054,PAYLOAD,2023-12-07 13:56:02,15.07205788,0.0001609,53.2187,49.1844,91.5369,268.5807,-2.4103e-05,-6.5e-06,0.0,0 STARLINK-5054,1 53906U 22119W   23341.58058166 -.00000650  00000-0 -24103-4 0  9997,2 53906  53.2187  49.1844 0001609  91.5369 268.5807 15.07205788 67563,6922.88,95.541,545.859,543.631,0.0
53906.0,STARLINK-5054,PAYLOAD,2023-12-08 12:12:52,15.07212897,0.000162,53.2189,45.0271,82.8067,277.3109,0.00010255,1.278e-05,0.0,0 STARLINK-5054,1 53906U 22119W   23342.50893960  .00001278  00000-0  10255-3 0  9996,2 53906  53.2189  45.0271 0001620  82.8067 277.3109 15.07212897 67286,6922.858,95.541,545.845,543.602,0.0
53906.0,STARLINK-5054,PAYLOAD,2023-12-09 04:07:46,15.07201605,0.000177,53.2189,42.0634,63.5224,296.5949,0.00015477,2.073e-05,0.0,0 STARLINK-5054,1 53906U 22119W   23343.17206405  .00002073  00000-0  15477-3 0  9997,2 53906  53.2189  42.0634 0001770  63.5224 296.5949 15.07201605 67384,6922.893,95.541,545.983,543.532,0.0
53906.0,STARLINK-5054,PAYLOAD,2023-12-09 13:40:42,15.07206534,0.0001533,53.2178,40.2761,85.6106,274.506,7.4523e-05,8.51e-06,0.0,0 STARLINK-5054,1 53906U 22119W   23343.56993361  .00000851  00000-0  74523-4 0  9994,2 53906  53.2178  40.2761 0001533  85.6106 274.5060 15.07206534 67863,6922.878,95.541,545.804,543.681,0.0
53906.0,STARLINK-5054,PAYLOAD,2023-12-11 10:14:23,15.07206428,0.000147,53.2179,31.9608,95.5367,264.5792,3.9809e-05,3.23e-06,0.0,0 STARLINK-5054,1 53906U 22119W   23345.42666614  .00000323  00000-0  39809-4 0  9991,2 53906  53.2179  31.9608 0001470  95.5367 264.5792 15.07206428 67728,6922.878,95.541,545.761,543.725,0.0
53906.0,STARLINK-5054,PAYLOAD,2023-12-12 10:06:44,15.072044,0.0001585,53.2187,27.5103,101.5435,258.5735,5.6291e-05,5.73e-06,0.0,0 STARLINK-5054,1 53906U 22119W   23346.42134656  .00000573  00000-0  56291-4 0  9999,2 53906  53.2187  27.5103 0001585 101.5435 258.5735 15.07204400 68290,6922.884,95.541,545.847,543.652,0.0
53906.0,STARLINK-5054,PAYLOAD,2023-12-13 09:59:04,15.07204313,0.0001521,53.2187,23.0545,88.3573,271.7593,3.8682e-05,3.05e-06,0.0,0 STARLINK-5054,1 53906U 22119W   23347.41602734  .00000305  00000-0  38682-4 0  9993,2 53906  53.2187  23.0545 0001521  88.3573 271.7593 15.07204313 68029,6922.885,95.541,545.803,543.697,0.0
53906.0,STARLINK-5054,PAYLOAD,2023-12-14 09:51:24,15.07207933,0.0001583,53.2189,18.5998,78.8782,281.2388,6.8215e-05,7.55e-06,0.0,0 STARLINK-5054,1 53906U 22119W   23348.41070409  .00000755  00000-0  68215-4 0  9996,2 53906  53.2189  18.5998 0001583  78.8782 281.2388 15.07207933 68597,6922.873,95.541,545.834,543.643,0.0
